NORAD_CAT_ID,OBJECT_NAME,OBJECT_TYPE,EPOCH,MEAN_MOTION,ECCENTRICITY,INCLINATION,RA_OF_ASC_NODE,ARG_OF_PERICENTER,MEAN_ANOMALY,BSTAR,MEAN_MOTION_DOT,MEAN_MOTION_DDOT,TLE_LINE0,TLE_LINE1,TLE_LINE2,SEMIMAJOR_AXIS,PERIOD,APOGEE,PERIGEE,DECAYED
52305.0,STARLINK-3724,PAYLOAD,2024-08-14 11:35:57,15.08847365,0.0001331,53.2158,147.9632,98.8646,261.2497,0.00039267,5.968e-05,0.0,0 STARLINK-3724,1 52305U 22041AW  24227.48329876  .00005968  00000-0  39267-3 0  9996,2 52305  53.2158 147.9632 0001331  98.8646 261.2497 15.08847365129349,6917.858,95.437,540.644,538.802,0.0
52305.0,STARLINK-3724,PAYLOAD,2024-08-14 22:43:38,15.08859044,0.0001299,53.2149,145.8806,88.445,271.6691,0.0009547,0.00014947,0.0,0 STARLINK-3724,1 52305U 22041AW  24227.94697596  .00014947  00000-0  95470-3 0  9999,2 52305  53.2149 145.8806 0001299  88.4450 271.6691 15.08859044128190,6917.822,95.436,540.586,538.789,0.0
52305.0,STARLINK-3724,PAYLOAD,2024-08-15 01:54:24,15.08879383,0.0001381,53.2153,145.2865,91.9224,268.1927,0.0013607,0.00021457,0.0,0 STARLINK-3724,1 52305U 22041AW  24228.07945162  .00021457  00000-0  13607-2 0  9994,2 52305  53.2153 145.2865 0001381  91.9224 268.1927 15.08879383129433,6917.76,95.435,540.58,538.67,0.0
52305.0,STARLINK-3724,PAYLOAD,2024-08-15 11:26:42,15.08872437,0.0001196,53.2139,143.5016,99.4702,260.6425,0.00017074,2.433e-05,0.0,0 STARLINK-3724,1 52305U 22041AW  24228.47688269  .00002433  00000-0  17074-3 0  9996,2 52305  53.2139 143.5016 0001196  99.4702 260.6425 15.08872437128278,6917.781,95.436,540.474,538.819,0.0
52305.0,STARLINK-3724,PAYLOAD,2024-08-15 22:34:24,15.08848994,9.9e-05,53.2142,141.4183,105.3288,254.7814,-0.00038037,-6.338e-05,0.0,0 STARLINK-3724,1 52305U 22041AW  24228.94056117 -.00006338  00000-0 -38037-3 0  9991,2 52305  53.2142 141.4183 0000990 105.3288 254.7814 15.08848994128346,6917.853,95.437,540.403,539.033,0.0
52305.0,STARLINK-3724,PAYLOAD,2024-08-16 01:45:10,15.08860167,0.0001277,53.2144,140.8257,105.3805,254.7329,0.00032418,4.878e-05,0.0,0 STARLINK-3724,1 52305U 22041AW  24229.07303996  .00004878  00000-0  32418-3 0  9998,2 52305  53.2144 140.8257 0001277 105.3805 254.7329 15.08860167129581,6917.819,95.436,540.567,538.8,0.0
52305.0,STARLINK-3724,PAYLOAD,2024-08-17 03:11:20,15.08862889,0.0001319,53.2143,136.0658,122.3019,237.8101,0.00093601,0.00014649,0.0,0 STARLINK-3724,1 52305U 22041AW  24230.13287790  .00014649  00000-0  93601-3 0  9998,2 52305  53.2143 136.0658 0001319 122.3019 237.8101 15.08862889129746,6917.81,95.436,540.588,538.763,0.0
52305.0,STARLINK-3724,PAYLOAD,2024-08-17 17:29:49,15.08840083,0.0001647,53.215,133.3906,107.0728,253.0445,0.00068076,0.00010563,0.0,0 STARLINK-3724,1 52305U 22041AW  24230.72904510  .00010563  00000-0  68076-3 0  9998,2 52305  53.2150 133.3906 0001647 107.0728 253.0445 15.08840083129834,6917.88,95.438,540.885,538.606,0.0
52305.0,STARLINK-3724,PAYLOAD,2024-08-17 23:51:22,15.08844809,0.0001037,53.215,132.2007,100.8159,259.295,0.0016544,0.00026143,0.0,0 STARLINK-3724,1 52305U 22041AW  24230.99400789  .00026143  00000-0  16544-2 0  9999,2 52305  53.2150 132.2007 0001037 100.8159 259.2950 15.08844809128654,6917.866,95.437,540.448,539.013,0.0
52305.0,STARLINK-3724,PAYLOAD,2024-08-18 20:31:23,15.08839093,0.0001485,53.2155,128.3366,111.0457,249.0694,0.0007406,0.00011518,0.0,0 STARLINK-3724,1 52305U 22041AW  24231.85513387  .00011518  00000-0  74060-3 0  9992,2 52305  53.2155 128.3366 0001485 111.0457 249.0694 15.08839093130008,6917.883,95.438,540.775,538.721,0.0
52305.0,STARLINK-3724,PAYLOAD,2024-08-18 22:06:46,15.08837924,0.0001338,53.2151,128.0404,93.7788,266.3357,0.00050216,7.713e-05,0.0,0 STARLINK-3724,1 52305U 22041AW  24231.92137466  .00007713  00000-0  50216-3 0  9999,2 52305  53.2151 128.0404 0001338  93.7788 266.3357 15.08837924128796,6917.887,95.438,540.677,538.826,0.0
52305.0,STARLINK-3724,PAYLOAD,2024-08-18 23:42:09,15.08838356,0.000131,53.2154,127.743,95.0268,265.0874,0.00042258,6.444e-05,0.0,0 STARLINK-3724,1 52305U 22041AW  24231.98761451  .00006444  00000-0  42258-3 0  9999,2 52305  53.2154 127.7430 0001310  95.0268 265.0874 15.08838356128804,6917.885,95.438,540.657,538.844,0.0
52305.0,STARLINK-3724,PAYLOAD,2024-08-20 02:43:43,15.0884895,0.0001343,53.2155,122.6865,98.32,261.7945,0.00040532,6.17e-05,0.0,0 STARLINK-3724,1 52305U 22041AW  24233.11369304  .00006170  00000-0  40532-3 0  9996,2 52305  53.2155 122.6865 0001343  98.3200 261.7945 15.08848950130197,6917.853,95.437,540.647,538.789,0.0
52305.0,STARLINK-3724,PAYLOAD,2024-08-20 20:12:57,15.08848557,0.000129,53.2151,119.4139,95.1012,265.0128,0.00022563,3.306e-05,0.0,0 STARLINK-3724,1 52305U 22041AW  24233.84233066  .00003306  00000-0  22563-3 0  9993,2 52305  53.2151 119.4139 0001290  95.1012 265.0128 15.08848557130304,6917.854,95.437,540.612,538.827,0.0
52305.0,STARLINK-3724,PAYLOAD,2024-08-21 02:34:29,15.08852769,0.0001411,53.216,118.223,94.6015,265.5138,0.00035065,5.299e-05,0.0,0 STARLINK-3724,1 52305U 22041AW  24234.10728808  .00005299  00000-0  35065-3 0  9990,2 52305  53.2160 118.2230 0001411  94.6015 265.5138 15.08852769129129,6917.841,95.437,540.682,538.73,0.0
52305.0,STARLINK-3724,PAYLOAD,2024-08-21 20:03:44,15.08841671,0.0001796,53.2163,114.9496,123.4363,236.6801,1.628e-05,-2.9e-07,0.0,0 STARLINK-3724,1 52305U 22041AW  24234.83592933 -.00000029  00000-0  16280-4 0  9994,2 52305  53.2163 114.9496 0001796 123.4363 236.6801 15.08841671130456,6917.875,95.437,540.983,538.498,0.0
